ONEWEB-0461             
1 51649U 22012AD  25083.76291633  .00000090  00000+0  19983-3 0  9998
2 51649  87.8999  95.3701 0001884  92.5896 267.5452 13.17649684154709
ONEWEB-0463             
1 51650U 22012AE  25084.04810007  .00000088  00000+0  19216-3 0  9990
2 51650  87.9004  95.3723 0002004  93.4462 266.6898 13.17650839155829
ONEWEB-0464             
1 51651U 22012AF  25083.82175436 -.00000425  00000+0 -12527-2 0  9990
2 51651  87.8827 125.8688 0002130  88.4307 271.7064 13.10369732150473
ONEWEB-0468             
1 51652U 22012AG  25084.51560405 -.00000536  00000+0 -15712-2 0  9994
2 51652  87.8828 125.7223 0002023  96.8280 263.3077 13.10370610151832
ONEWEB-0473             
1 51653U 22012AH  25084.50067640  .00000185  00000+0  49424-3 0  9993
2 51653  87.8828 125.7291 0002130  97.0426 263.0943 13.10369195151848
ONEWEB-0474             
1 51654U 22012AJ  25083.80516414  .00000477  00000+0  13308-2 0  9999
2 51654  87.8819 125.8384 0002214  93.5508 266.5872 13.10371037150440
ONEWEB-0475             
1 51655U 22012AK  25084.05990425  .00000041  00000+0  71318-4 0  9990
2 51655  87.9004  95.3495 0002790  90.1180 270.0271 13.17651827155836
ONEWEB-0490             
1 54113U 22138A   25083.31355160  .00000141  00000+0  32110-3 0  9997
2 54113  87.9223  34.3663 0002011  76.3839 283.7518 13.19727360117497
